
# Worst residual: 8.80 km
# MJD 58060.000000 (2017 Nov  3  0:00)
2015-005B = NORAD 40385
1 40385U 15005B   17307.99919926  .00000000  00000-0  00000-0 0    06
2 40385 025.2206 226.0996 7524348 347.4695 006.3168 01.11102838    03

# Worst residual: 9.53 km
# MJD 58062.000000 (2017 Nov  5  0:00)
2015-005B = NORAD 40385
1 40385U 15005B   17309.99919926  .00000000  00000-0  00000-0 0    08
2 40385 025.2036 225.9314 7523819 347.7793 086.2336 01.11106983    09

# Worst residual: 7.16 km
# MJD 58064.000000 (2017 Nov  7  0:00)
2015-005B = NORAD 40385
1 40385U 15005B   17311.99919926  .00000000  00000-0  00000-0 0    01
2 40385 025.1891 225.7555 7523060 348.0809 166.1894 01.11110546    09

# Worst residual: 7.11 km
# MJD 58066.000000 (2017 Nov  9  0:00)
2015-005B = NORAD 40385
1 40385U 15005B   17313.99919926  .00000000  00000-0  00000-0 0    03
2 40385 025.1868 225.5771 7523582 348.3815 246.1503 01.11109451    09

# Worst residual: 6.96 km
# MJD 58068.000000 (2017 Nov 11  0:00)
2015-005B = NORAD 40385
1 40385U 15005B   17315.99919926  .00000000  00000-0  00000-0 0    05
2 40385 025.1847 225.4018 7524362 348.6869 326.0940 01.11108084    02

# Worst residual: 6.45 km
# MJD 58070.000000 (2017 Nov 13  0:00)
2015-005B = NORAD 40385
1 40385U 15005B   17317.99919926  .00000000  00000-0  00000-0 0    07
2 40385 025.1769 225.2312 7524550 348.9882 046.0403 01.11109170    07

# Worst residual: 7.01 km
# MJD 58072.000000 (2017 Nov 15  0:00)
2015-005B = NORAD 40385
1 40385U 15005B   17319.99919926  .00000000  00000-0  00000-0 0    09
2 40385 025.1680 225.0594 7524585 349.2853 126.0048 01.11111270    07

# Worst residual: 6.60 km
# MJD 58074.000000 (2017 Nov 17  0:00)
2015-005B = NORAD 40385
1 40385U 15005B   17321.99919926  .00000000  00000-0  00000-0 0    02
2 40385 025.1648 224.8865 7524760 349.5794 205.9785 01.11111443    08

# Worst residual: 6.85 km
# MJD 58076.000000 (2017 Nov 19  0:00)
2015-005B = NORAD 40385
1 40385U 15005B   17323.99919926  .00000000  00000-0  00000-0 0    04
2 40385 025.1633 224.7134 7525212 349.8755 285.9478 01.11110693    06

# Worst residual: 6.37 km
# MJD 58078.000000 (2017 Nov 21  0:00)
2015-005B = NORAD 40385
1 40385U 15005B   17325.99919926  .00000000  00000-0  00000-0 0    06
2 40385 025.1615 224.5398 7525388 350.1767 005.9061 01.11109457    02

# Worst residual: 6.64 km
# MJD 58080.000000 (2017 Nov 23  0:00)
2015-005B = NORAD 40385
1 40385U 15005B   17327.99919926  .00000000  00000-0  00000-0 0    08
2 40385 025.1544 224.3690 7525406 350.4752 085.8636 01.11110149    09

# Worst residual: 7.20 km
# MJD 58082.000000 (2017 Nov 25  0:00)
2015-005B = NORAD 40385
1 40385U 15005B   17329.99919926  .00000000  00000-0  00000-0 0    00
2 40385 025.1453 224.1959 7525248 350.7715 165.8316 01.11111364    04

# Worst residual: 7.88 km
# MJD 58084.000000 (2017 Nov 27  0:00)
2015-005B = NORAD 40385
1 40385U 15005B   17331.99919926  .00000000  00000-0  00000-0 0    03
2 40385 025.1405 224.0210 7525783 351.0665 245.8040 01.11110874    00

# Worst residual: 7.52 km
# MJD 58086.000000 (2017 Nov 29  0:00)
2015-005B = NORAD 40385
1 40385U 15005B   17333.99919926  .00000000  00000-0  00000-0 0    05
2 40385 025.1413 223.8436 7527148 351.3731 325.7527 01.11106381    06

# Worst residual: 9.21 km
# MJD 58088.000000 (2017 Dec  1  0:00)
2015-005B = NORAD 40385
1 40385U 15005B   17335.99919926  .00000000  00000-0  00000-0 0    07
2 40385 025.1347 223.6724 7527785 351.6871 045.6658 01.11103206    01

# Worst residual: 9.31 km
# MJD 58090.000000 (2017 Dec  3  0:00)
2015-005B = NORAD 40385
1 40385U 15005B   17337.99919926  .00000000  00000-0  00000-0 0    09
2 40385 025.1143 223.5016 7527203 351.9980 125.5896 01.11108547    02

# Worst residual: 6.94 km
# MJD 58092.000000 (2017 Dec  5  0:00)
2015-005B = NORAD 40385
1 40385U 15005B   17339.99919926  .00000000  00000-0  00000-0 0    01
2 40385 025.1023 223.3242 7526724 352.2985 205.5530 01.11110920    06

# Worst residual: 7.62 km
# MJD 58094.000000 (2017 Dec  7  0:00)
2015-005B = NORAD 40385
1 40385U 15005B   17341.99919926  .00000000  00000-0  00000-0 0    04
2 40385 025.1009 223.1473 7527623 352.5990 285.5127 01.11108923    02

# Worst residual: 7.01 km
# MJD 58096.000000 (2017 Dec  9  0:00)
2015-005B = NORAD 40385
1 40385U 15005B   17343.99919926  .00000000  00000-0  00000-0 0    06
2 40385 025.0977 222.9747 7528353 352.9035 005.4556 01.11107784    00

# Worst residual: 6.72 km
# MJD 58098.000000 (2017 Dec 11  0:00)
2015-005B = NORAD 40385
1 40385U 15005B   17345.99919926  .00000000  00000-0  00000-0 0    08
2 40385 025.0877 222.8057 7528652 353.2028 085.4069 01.11110072    01

# Worst residual: 6.70 km
# MJD 58100.000000 (2017 Dec 13  0:00)
2015-005B = NORAD 40385
1 40385U 15005B   17347.99919926  .00000000  00000-0  00000-0 0    00
2 40385 025.0801 222.6343 7528644 353.4976 165.3781 01.11111658    09

# Worst residual: 6.89 km
# MJD 58102.000000 (2017 Dec 15  0:00)
2015-005B = NORAD 40385
1 40385U 15005B   17349.99919926  .00000000  00000-0  00000-0 0    02
2 40385 025.0777 222.4635 7528991 353.7893 245.3542 01.11111488    04

# Worst residual: 6.48 km
# MJD 58104.000000 (2017 Dec 17  0:00)
2015-005B = NORAD 40385
1 40385U 15005B   17351.99919926  .00000000  00000-0  00000-0 0    05
2 40385 025.0771 222.2916 7529512 354.0855 325.3234 01.11110677    06

# Worst residual: 6.76 km
# MJD 58106.000000 (2017 Dec 19  0:00)
2015-005B = NORAD 40385
1 40385U 15005B   17353.99919926  .00000000  00000-0  00000-0 0    07
2 40385 025.0735 222.1210 7529732 354.3838 045.2826 01.11109690    08

# Worst residual: 7.39 km
# MJD 58108.000000 (2017 Dec 21  0:00)
2015-005B = NORAD 40385
1 40385U 15005B   17355.99919926  .00000000  00000-0  00000-0 0    09
2 40385 025.0649 221.9508 7529797 354.6805 125.2446 01.11110746    08

# Worst residual: 6.76 km
# MJD 58110.000000 (2017 Dec 23  0:00)
2015-005B = NORAD 40385
1 40385U 15005B   17357.99919926  .00000000  00000-0  00000-0 0    01
2 40385 025.0571 221.7788 7529913 354.9737 205.2172 01.11111473    00

# Worst residual: 8.12 km
# MJD 58112.000000 (2017 Dec 25  0:00)
2015-005B = NORAD 40385
1 40385U 15005B   17359.99919926  .00000000  00000-0  00000-0 0    03
2 40385 025.0531 221.6057 7530866 355.2682 285.1882 01.11110064    06

# Worst residual: 8.14 km
# MJD 58114.000000 (2017 Dec 27  0:00)
2015-005B = NORAD 40385
1 40385U 15005B   17361.99919926  .00000000  00000-0  00000-0 0    06
2 40385 025.0528 221.4322 7532175 355.5736 005.1314 01.11105412    04
